NORAD_CAT_ID,OBJECT_NAME,OBJECT_TYPE,EPOCH,MEAN_MOTION,ECCENTRICITY,INCLINATION,RA_OF_ASC_NODE,ARG_OF_PERICENTER,MEAN_ANOMALY,BSTAR,MEAN_MOTION_DOT,MEAN_MOTION_DDOT,TLE_LINE0,TLE_LINE1,TLE_LINE2,SEMIMAJOR_AXIS,PERIOD,APOGEE,PERIGEE,DECAYED
55778.0,STARLINK-5816,PAYLOAD,2024-03-01 13:42:22,14.98329301,0.0003032,69.9986,285.3709,270.0692,90.012,2.3494e-05,1.87e-06,0.0,0 STARLINK-5816,1 55778U 23028AP  24061.57109909  .00000187  00000-0  23494-4 0  9992,2 55778  69.9986 285.3709 0003032 270.0692  90.0120 14.98329301 55977,6950.195,96.107,574.167,569.953,0.0
55778.0,STARLINK-5816,PAYLOAD,2024-03-01 21:43:03,14.98331929,0.0003037,69.9984,284.5292,270.2272,89.8539,1.4153e-06,-7.6e-07,0.0,0 STARLINK-5816,1 55778U 23028AP  24061.90489774 -.00000076  00000-0  14153-5 0  9991,2 55778  69.9984 284.5292 0003037 270.2272  89.8539 14.98331929 56020,6950.187,96.107,574.163,569.941,0.0
55778.0,STARLINK-5816,PAYLOAD,2024-03-02 00:55:19,14.98332572,0.0003033,69.9984,284.1925,270.2852,89.7959,8.4719e-06,8e-08,0.0,0 STARLINK-5816,1 55778U 23028AP  24062.03841689  .00000008  00000-0  84719-5 0  9992,2 55778  69.9984 284.1925 0003033 270.2852  89.7959 14.98332572 56041,6950.185,96.107,574.158,569.942,0.0
55778.0,STARLINK-5816,PAYLOAD,2024-03-02 21:45:03,14.98346369,0.0002776,69.9983,282.0041,269.4933,90.5908,-0.00019273,-2.393e-05,0.0,0 STARLINK-5816,1 55778U 23028AP  24062.90629224 -.00002393  00000-0 -19273-3 0  9999,2 55778  69.9983 282.0041 0002776 269.4933  90.5908 14.98346369 56176,6950.142,96.106,573.937,570.078,0.0
55778.0,STARLINK-5816,PAYLOAD,2024-03-03 00:57:19,14.98334857,0.0002973,69.9983,281.6674,270.7957,89.2862,4.3864e-05,4.3e-06,0.0,0 STARLINK-5816,1 55778U 23028AP  24063.03981269  .00000430  00000-0  43864-4 0  9996,2 55778  69.9983 281.6674 0002973 270.7957  89.2862 14.98334857 56198,6950.178,96.107,574.109,569.977,0.0
55778.0,STARLINK-5816,PAYLOAD,2024-03-03 07:21:52,14.98331848,0.0002931,69.9985,280.9926,273.5958,86.4866,-1.7286e-05,-2.99e-06,0.0,0 STARLINK-5816,1 55778U 23028AP  24063.30685579 -.00000299  00000-0 -17286-4 0  9995,2 55778  69.9985 280.9926 0002931 273.5958  86.4866 14.98331848 56233,6950.187,96.107,574.089,570.015,0.0
55778.0,STARLINK-5816,PAYLOAD,2024-03-03 18:34:49,14.9832762,0.000278,69.9986,279.815,269.2206,90.8634,-4.3134e-05,-6.08e-06,0.0,0 STARLINK-5816,1 55778U 23028AP  24063.77417917 -.00000608  00000-0 -43134-4 0  9990,2 55778  69.9986 279.8150 0002780 269.2206  90.8634 14.98327620 56303,6950.2,96.107,573.997,570.133,0.0
55778.0,STARLINK-5816,PAYLOAD,2024-03-04 00:59:21,14.9832878,0.0002754,69.9983,279.1421,269.5479,90.5365,-1.2717e-06,-1.08e-06,0.0,0 STARLINK-5816,1 55778U 23028AP  24064.04121817 -.00000108  00000-0 -12717-5 0  9991,2 55778  69.9983 279.1421 0002754 269.5479  90.5365 14.98328780 56340,6950.197,96.107,573.976,570.148,0.0
55778.0,STARLINK-5816,PAYLOAD,2024-03-04 07:23:53,14.98330679,0.0002801,69.9982,278.4692,265.4695,94.6144,1.909e-05,1.35e-06,0.0,0 STARLINK-5816,1 55778U 23028AP  24064.30825587  .00000135  00000-0  19090-4 0  9993,2 55778  69.9982 278.4692 0002801 265.4695  94.6144 14.98330679 56383,6950.191,96.107,574.003,570.109,0.0
55778.0,STARLINK-5816,PAYLOAD,2024-03-04 20:12:57,14.98337214,0.0002852,69.9982,277.1221,267.0789,93.0044,4.2818e-05,4.18e-06,0.0,0 STARLINK-5816,1 55778U 23028AP  24064.84232915  .00000418  00000-0  42818-4 0  9997,2 55778  69.9982 277.1221 0002852 267.0789  93.0044 14.98337214 56468,6950.171,96.107,574.018,570.053,0.0
55778.0,STARLINK-5816,PAYLOAD,2024-03-04 21:49:05,14.98336878,0.0002859,69.9982,276.9537,266.9738,93.1093,3.815e-05,3.62e-06,0.0,0 STARLINK-5816,1 55778U 23028AP  24064.90908918  .00000362  00000-0  38150-4 0  9999,2 55778  69.9982 276.9537 0002859 266.9738  93.1093 14.98336878 56475,6950.172,96.107,574.024,570.05,0.0
55778.0,STARLINK-5816,PAYLOAD,2024-03-05 13:50:26,14.9832151,0.0002969,69.9982,275.27,268.4194,91.6625,1.0381e-05,3.1e-07,0.0,0 STARLINK-5816,1 55778U 23028AP  24065.57669867  .00000031  00000-0  10381-4 0  9999,2 55778  69.9982 275.2700 0002969 268.4194  91.6625 14.98321510 56576,6950.219,96.108,574.148,570.021,0.0
55778.0,STARLINK-5816,PAYLOAD,2024-03-05 21:51:07,14.98321687,0.0002981,69.998,274.4282,268.4373,91.6444,-5.816e-05,-7.87e-06,0.0,0 STARLINK-5816,1 55778U 23028AP  24065.91050200 -.00000787  00000-0 -58160-4 0  9999,2 55778  69.9980 274.4282 0002981 268.4373  91.6444 14.98321687 56623,6950.219,96.108,574.155,570.012,0.0
55778.0,STARLINK-5816,PAYLOAD,2024-03-06 13:52:27,14.98330217,0.0003021,69.9982,272.7445,267.9658,92.1155,-3.8708e-05,-5.55e-06,0.0,0 STARLINK-5816,1 55778U 23028AP  24066.57809725 -.00000555  00000-0 -38708-4 0  9995,2 55778  69.9982 272.7445 0003021 267.9658  92.1155 14.98330217 56728,6950.192,96.107,574.157,569.958,0.0
55778.0,STARLINK-5816,PAYLOAD,2024-03-06 20:16:59,14.98332031,0.0003033,69.9982,272.0714,268.3978,91.6834,-4.6597e-05,-6.49e-06,0.0,0 STARLINK-5816,1 55778U 23028AP  24066.84513634 -.00000649  00000-0 -46597-4 0  9995,2 55778  69.9982 272.0714 0003033 268.3978  91.6834 14.98332031 56761,6950.187,96.107,574.16,569.944,0.0
55778.0,STARLINK-5816,PAYLOAD,2024-03-07 13:54:28,14.98326574,0.0003115,69.998,270.2199,268.5073,91.5729,0.00010192,1.123e-05,0.0,0 STARLINK-5816,1 55778U 23028AP  24067.57949565  .00001123  00000-0  10192-3 0  9999,2 55778  69.9980 270.2199 0003115 268.5073  91.5729 14.98326574 56874,6950.203,96.107,574.233,569.903,0.0
55778.0,STARLINK-5816,PAYLOAD,2024-03-07 23:31:16,14.98329392,0.000312,69.998,269.2099,268.6084,91.4718,0.00010396,1.148e-05,0.0,0 STARLINK-5816,1 55778U 23028AP  24067.98005439  .00001148  00000-0  10396-3 0  9990,2 55778  69.9980 269.2099 0003120 268.6084  91.4718 14.98329392 56935,6950.195,96.107,574.228,569.891,0.0
55778.0,STARLINK-5816,PAYLOAD,2024-03-08 23:33:17,14.98333018,0.0003082,69.998,266.6848,268.848,91.2326,4.539e-05,4.49e-06,0.0,0 STARLINK-5816,1 55778U 23028AP  24068.98145249  .00000449  00000-0  45390-4 0  9991,2 55778  69.9980 266.6848 0003082 268.8480  91.2326 14.98333018 57087,6950.184,96.107,574.191,569.907,0.0
55778.0,STARLINK-5816,PAYLOAD,2024-03-09 12:22:22,14.98331946,0.0003019,69.9982,265.3382,269.5231,90.5582,-1.2916e-05,-2.47e-06,0.0,0 STARLINK-5816,1 55778U 23028AP  24069.51553400 -.00000247  00000-0 -12916-4 0  9999,2 55778  69.9982 265.3382 0003019 269.5231  90.5582 14.98331946 57163,6950.187,96.107,574.15,569.954,0.0
55778.0,STARLINK-5816,PAYLOAD,2024-03-09 18:46:54,14.98331725,0.0003013,69.9982,264.6648,269.4227,90.6586,-1.5148e-05,-2.74e-06,0.0,0 STARLINK-5816,1 55778U 23028AP  24069.78257359 -.00000274  00000-0 -15148-4 0  9992,2 55778  69.9982 264.6648 0003013 269.4227  90.6586 14.98331725 57203,6950.188,96.107,574.147,569.958,0.0
55778.0,STARLINK-5816,PAYLOAD,2024-03-10 05:59:50,14.98328062,0.0002787,69.9993,263.4865,267.1583,92.9257,3.9141e-05,3.74e-06,0.0,0 STARLINK-5816,1 55778U 23028AP  24070.24989425  .00000374  00000-0  39141-4 0  9999,2 55778  69.9993 263.4865 0002787 267.1583  92.9257 14.98328062 57277,6950.199,96.107,574.001,570.127,0.0
55778.0,STARLINK-5816,PAYLOAD,2024-03-10 22:01:11,14.98331087,0.0003503,69.9992,261.8028,267.8549,92.2208,-2.2319e-05,-3.59e-06,0.0,0 STARLINK-5816,1 55778U 23028AP  24070.91749100 -.00000359  00000-0 -22319-4 0  9991,2 55778  69.9992 261.8028 0003503 267.8549  92.2208 14.98331087 57376,6950.19,96.107,574.489,569.62,0.0
55778.0,STARLINK-5816,PAYLOAD,2024-03-10 23:37:19,14.9833527,0.0003767,69.9992,261.6341,263.5938,96.4792,-6.6986e-05,-8.92e-06,0.0,0 STARLINK-5816,1 55778U 23028AP  24070.98424911 -.00000892  00000-0 -66986-4 0  9998,2 55778  69.9992 261.6341 0003767 263.5938  96.4792 14.98335270 57382,6950.177,96.107,574.66,569.423,0.0
55778.0,STARLINK-5816,PAYLOAD,2024-03-12 12:28:26,14.98262667,0.0003084,69.9993,257.7624,260.4018,99.6793,0.0010961,0.00012987,0.0,0 STARLINK-5816,1 55778U 23028AP  24072.51974538  .00012987  00000-0  10961-2 0  9990,2 55778  69.9993 257.7624 0003084 260.4018  99.6793 14.98262667 57611,6950.401,96.111,574.41,570.123,0.0
55778.0,STARLINK-5816,PAYLOAD,2024-03-12 22:05:13,14.98329172,0.0002875,69.9998,256.7518,262.7189,97.3643,2.8035e-05,2.42e-06,0.0,0 STARLINK-5816,1 55778U 23028AP  24072.92029259  .00000242  00000-0  28035-4 0  9990,2 55778  69.9998 256.7518 0002875 262.7189  97.3643 14.98329172 57678,6950.195,96.107,574.059,570.062,0.0
55778.0,STARLINK-5816,PAYLOAD,2024-03-13 12:30:25,14.98333949,0.0003042,69.9994,255.238,271.4494,88.6317,1.8122e-05,1.23e-06,0.0,0 STARLINK-5816,1 55778U 23028AP  24073.52113107  .00000123  00000-0  18122-4 0  9997,2 55778  69.9994 255.2380 0003042 271.4494  88.6317 14.98333949 57766,6950.181,96.107,574.16,569.931,0.0
55778.0,STARLINK-5816,PAYLOAD,2024-03-13 22:07:13,14.98334503,0.0003084,69.9989,254.2279,270.5115,89.569,1.6964e-05,1.09e-06,0.0,0 STARLINK-5816,1 55778U 23028AP  24073.92168955  .00000109  00000-0  16964-4 0  9998,2 55778  69.9989 254.2279 0003084 270.5115  89.5690 14.98334503 57820,6950.179,96.107,574.187,569.901,0.0
55778.0,STARLINK-5816,PAYLOAD,2024-03-14 22:09:14,14.98334884,0.000307,69.9994,251.703,270.806,89.2748,2.1246e-05,1.61e-06,0.0,0 STARLINK-5816,1 55778U 23028AP  24074.92308634  .00000161  00000-0  21246-4 0  9996,2 55778  69.9994 251.7030 0003070 270.8060  89.2748 14.98334884 57979,6950.178,96.107,574.176,569.909,0.0
55778.0,STARLINK-5816,PAYLOAD,2024-03-15 12:34:27,14.98331469,0.0003033,69.9996,250.1882,270.8461,89.235,-2.8614e-05,-4.34e-06,0.0,0 STARLINK-5816,1 55778U 23028AP  24075.52392875 -.00000434  00000-0 -28614-4 0  9994,2 55778  69.9996 250.1882 0003033 270.8461  89.2350 14.98331469 58069,6950.188,96.107,574.161,569.945,0.0
55778.0,STARLINK-5816,PAYLOAD,2024-03-16 12:36:28,14.98330132,0.0002952,70.0005,247.6618,264.4981,95.5842,-1.4907e-05,-2.71e-06,0.0,0 STARLINK-5816,1 55778U 23028AP  24076.52532760 -.00000271  00000-0 -14907-4 0  9993,2 55778  70.0005 247.6618 0002952 264.4981  95.5842 14.98330132 58215,6950.192,96.107,574.109,570.006,0.0
